COSMOS 2251 DEB         
1 34909U 93036ADE 17345.38614976  .00000297  00000-0  57830-4 0  9995
2 34909  74.0177 328.5308 0104400 118.2244 242.9513 14.64346417464889
